ONEWEB-0159             
1 48062U 21025W   24261.50703833  .00000324  00000+0  85232-3 0  9995
2 48062  87.8849  87.0927 0001827  82.1839 277.9498 13.13467949169894
ONEWEB-0164             
1 48063U 21025X   24261.48958741  .00000028  00000+0  40972-4 0  9997
2 48063  87.8848  87.1065 0001695  90.6275 269.5048 13.13469237169888
ONEWEB-0167             
1 48064U 21025Y   24261.51896334  .00000321  00000+0  84485-3 0  9993
2 48064  87.8852  87.1140 0001895  85.0629 275.0716 13.13468659169860
ONEWEB-0166             
1 48065U 21025Z   24260.93093803 -.00000252  00000+0 -72489-3 0  9995
2 48065  87.8845  87.2111 0001666  80.6469 279.4849 13.13466820169864
ONEWEB-0151             
1 48066U 21025AA  24260.93252542 -.00000205  00000+0 -59648-3 0  9993
2 48066  87.8849  87.2266 0001725  92.0571 268.0755 13.13466957169802
ONEWEB-0170             
1 48067U 21025AB  24261.01665801 -.00000225  00000+0 -65105-3 0  9997
2 48067  87.8849  87.2126 0001595 109.8935 250.2366 13.13469464169777
ONEWEB-0168             
1 48068U 21025AC  24260.92619854 -.00000127  00000+0 -38398-3 0  9999
2 48068  87.8854  87.2033 0001736  86.3883 273.7445 13.13468875169772
ONEWEB-0173             
1 48069U 21025AD  24261.52768288  .00000161  00000+0  40475-3 0  9998
2 48069  87.8854  87.0927 0002177  90.5203 269.6176 13.13469019170099
